KUZGTU 1 (RS47S)        
1 57217U 23091AV  26164.56743162  .00012505  00000+0  43491-3 0  9996
2 57217  97.5072 229.0103 0012378 109.1563 251.1018 15.29785361163822
SONATE-2                
1 59112U 24043Q   26164.35034011  .00039351  00000+0  51586-3 0  9995
2 59112  97.5519 314.5122 0006880 208.3384 151.7498 15.58447081127293
MESAT1                  
1 60209U 24125G   26164.58509731  .00056628  00000+0  62539-3 0  9992
2 60209  97.2296  21.9867 0009213 217.0373 143.0251 15.62840478109006
OOV-CUBE (TUBSAT-30)    
1 60240U 24128F   26164.52889216  .00002174  00000+0  17408-3 0  9995
2 60240  61.9948 238.3294 0045090 132.8997 227.5893 15.02760687105564
COLIBRI-S (RS67S)       
1 61746U 24199M   26164.63504533  .00023073  00000+0  44861-3 0  9997
2 61746  97.3002  38.4580 0006282 296.2809  63.7795 15.47589571136862
HORS 3 (RS81S)          
1 61753U 24199U   26164.61421815  .00036818  00000+0  55404-3 0  9990
2 61753  97.2988  40.3850 0003749 300.3364  59.7519 15.54742039137006
HORS 4 (RS82S)          
1 61754U 24199V   26164.64966736  .00047803  00000+0  60461-3 0  9995
2 61754  97.2936  41.5997 0002952 280.8514  79.2411 15.59380263137098
ARCTICSAT 1 (RS74S)     
1 61762U 24199AD  26164.11788900  .03579472  24057-5  11681-2 0  9999
2 61762  97.2788  48.2183 0009656 221.8122 138.2434 16.25959635137473
SIT-2086                
1 61764U 24199AF  26164.58812084  .00037649  00000+0  60634-3 0  9994
2 61764  97.2944  40.8476 0004345 270.3702  89.7053 15.52856218133874
HYPERVIEW 1G (RS66S)    
1 61772U 24199AP  26164.44200519  .00132494  00000+0  88637-3 0  9999
2 61772  97.2884  43.9750 0002868 238.7842 121.3142 15.74899790134088
ALTAIR (RS65S)          
1 61779U 24199AW  26164.59637570  .00011296  00000+0  31390-3 0  9993
2 61779  97.3039  33.9717 0011432 325.7199  34.3307 15.36968499136561
ASRTU-1 (AO-123)        
1 61781U 24199AY  26164.58113635  .00008128  00000+0  23638-3 0  9992
2 61781  97.3009  33.2851 0012616 328.4360  31.6126 15.35628131133378
SAMSAT-IONOSPHERE (RS7*)
1 61784U 24199BB  26164.58998944  .00048011  00000+0  65515-3 0  9994
2 61784  97.2957  40.3942 0005904 295.4870  64.5775 15.57336044137005
RTU MIREA 1 (RS51S)     
1 61785U 24199BC  26164.62230253  .00059270  00000+0  71068-3 0  9991
2 61785  97.2944  41.2405 0005417 286.7487  73.3175 15.60727141133916
TEVEL2-4                
1 63213U 25052D   26164.46535827  .00018578  00000+0  55759-3 0  9990
2 63213  97.3917  60.8514 0004758 110.0484 250.1272 15.34488876 69546
TEVEL2-5                
1 63214U 25052E   26163.96369743  .00019112  00000+0  57700-3 0  9990
2 63214  97.3917  60.2979 0004664 112.6525 247.5211 15.34298068 69462
TEVEL2-6                
1 63215U 25052F   26164.62812611  .00018594  00000+0  56162-3 0  9996
2 63215  97.3920  60.9479 0004629 111.5332 248.6404 15.34288818 69563
TEVEL2-1                
1 63217U 25052H   26164.46019551  .00017842  00000+0  54827-3 0  9993
2 63217  97.3891  60.4086 0004567 121.0574 239.1118 15.33751772 69522
TEVEL2-3                
1 63218U 25052J   26164.65068986  .00018701  00000+0  57335-3 0  9993
2 63218  97.3895  60.6205 0004575 120.5094 239.6601 15.33815100 69553
TEVEL2-2                
1 63219U 25052K   26164.46052987  .00018176  00000+0  55831-3 0  9992
2 63219  97.3887  60.4116 0004604 121.2587 238.9108 15.33760135 69520
TEVEL2-9                
1 63237U 25052AD  26164.43314841  .00015986  00000+0  52237-3 0  9992
2 63237  97.3953  59.7669 0007485 141.0831 219.0950 15.31790900 69458
TEVEL2-7                
1 63238U 25052AE  26164.21198650  .00016192  00000+0  53402-3 0  9992
2 63238  97.3956  59.4641 0007517 142.1332 218.0439 15.31491052 69416
TEVEL2-8                
1 63239U 25052AF  26163.69748469  .00017638  00000+0  58194-3 0  9992
2 63239  97.3955  58.9279 0007531 144.4315 215.7430 15.31459087 69337
INNOSAT 16 (RS92S7)     
1 64878U 25155C   26164.59099665  .00006244  00000+0  24966-3 0  9994
2 64878  97.4557 131.7302 0010122 187.9538 172.1541 15.25421769 80120
GEOSCAN 6 (RS92S6)      
1 64879U 25155D   26164.58476636  .00010293  00000+0  35568-3 0  9990
2 64879  97.4548 133.1228 0007891 174.1368 185.9966 15.30089307 80219
GEOSCAN 1 (RS92S1)      
1 64880U 25155E   26164.58861000  .00011465  00000+0  38870-3 0  9996
2 64880  97.4545 133.2713 0007825 173.8231 186.3108 15.30680000 80221
239ALFEROV (RS61S)      
1 64881U 25155F   26164.62865097  .00013350  00000+0  42264-3 0  9999
2 64881  97.4545 133.8611 0007546 170.3265 189.8123 15.32850855 80262
GEOSCAN 2 (RS92S2)      
1 64890U 25155Q   26164.58293117  .00011278  00000+0  37923-3 0  9995
2 64890  97.4544 133.4167 0007673 160.3946 199.7591 15.30950893 80236
GEOSCAN 5 (RS92S5)      
1 64891U 25155R   26164.61841344  .00014047  00000+0  44025-3 0  9999
2 64891  97.4538 133.9869 0006245 173.6915 186.4407 15.33169139 80272
GEOSCAN 4 (RS92S4)      
1 64892U 25155S   26164.60296215  .00014861  00000+0  46336-3 0  9991
2 64892  97.4541 134.0187 0006301 173.8445 186.2876 15.33321349 80276
