OBJECT_NAME,OBJECT_ID,EPOCH,MEAN_MOTION,ECCENTRICITY,INCLINATION,RA_OF_ASC_NODE,ARG_OF_PERICENTER,MEAN_ANOMALY,EPHEMERIS_TYPE,CLASSIFICATION_TYPE,NORAD_CAT_ID,ELEMENT_SET_NO,REV_AT_EPOCH,BSTAR,MEAN_MOTION_DOT,MEAN_MOTION_DDOT
KUZGTU 1 (RS47S),2023-091AV,2026-06-13T13:37:06.091968,15.29785361,.00123781,97.5072,229.0103,109.1563,251.1018,0,U,57217,999,16382,.43490787E-3,.12505E-3,0
SONATE-2,2024-043Q,2026-06-13T08:24:29.385504,15.58447081,.00068801,97.5519,314.5122,208.3384,151.7498,0,U,59112,999,12729,.51585781E-3,.39351E-3,0
MESAT1,2024-125G,2026-06-13T14:02:32.407584,15.62840478,.00092138,97.2296,21.9867,217.0373,143.0251,0,U,60209,999,10900,.62538562E-3,.56628E-3,0
OOV-CUBE (TUBSAT-30),2024-128F,2026-06-13T12:41:36.282624,15.02760687,.00450904,61.9948,238.3294,132.8997,227.5893,0,U,60240,999,10556,.17407525E-3,.2174E-4,0
COLIBRI-S (RS67S),2024-199M,2026-06-13T15:14:27.916512,15.47589571,.00062824,97.3002,38.4580,296.2809,63.7795,0,U,61746,999,13686,.44860588E-3,.23073E-3,0
HORS 3 (RS81S),2024-199U,2026-06-13T14:44:28.448160,15.54742039,.00037497,97.2988,40.3850,300.3364,59.7519,0,U,61753,999,13700,.55404389E-3,.36818E-3,0
HORS 4 (RS82S),2024-199V,2026-06-13T15:35:31.259904,15.59380263,.00029523,97.2936,41.5997,280.8514,79.2411,0,U,61754,999,13709,.60461206E-3,.47803E-3,0
ARCTICSAT 1 (RS74S),2024-199AD,2026-06-13T02:49:45.609600,16.25959635,.00096568,97.2788,48.2183,221.8122,138.2434,0,U,61762,999,13747,.11680731E-2,.3579472E-1,.2405656E-5
SIT-2086,2024-199AF,2026-06-13T14:06:53.640576,15.52856218,.00043454,97.2944,40.8476,270.3702,89.7053,0,U,61764,999,13387,.60634301E-3,.37649E-3,0
HYPERVIEW 1G (RS66S),2024-199AP,2026-06-13T10:36:29.248416,15.74899790,.00028681,97.2884,43.9750,238.7842,121.3142,0,U,61772,999,13408,.88636789E-3,.132494E-2,0
ALTAIR (RS65S),2024-199AW,2026-06-13T14:18:46.860480,15.36968499,.00114325,97.3039,33.9717,325.7199,34.3307,0,U,61779,999,13656,.31390046E-3,.11296E-3,0
ASRTU-1 (AO-123),2024-199AY,2026-06-13T13:56:50.180640,15.35628131,.0012616,97.3009,33.2851,328.4360,31.6126,0,U,61781,999,13337,.23638118E-3,.8128E-4,0
SAMSAT-IONOSPHERE (RS75S),2024-199BB,2026-06-13T14:09:35.087616,15.57336044,.00059041,97.2957,40.3942,295.4870,64.5775,0,U,61784,999,13700,.65515034E-3,.48011E-3,0
RTU MIREA 1 (RS51S),2024-199BC,2026-06-13T14:56:06.938592,15.60727141,.00054171,97.2944,41.2405,286.7487,73.3175,0,U,61785,999,13391,.71067859E-3,.5927E-3,0
TEVEL2-4,2025-052D,2026-06-13T11:10:06.954528,15.34488876,.00047589,97.3917,60.8514,110.0484,250.1272,0,U,63213,999,6954,.55759021E-3,.18578E-3,0
TEVEL2-5,2025-052E,2026-06-12T23:07:43.457952,15.34298068,.00046641,97.3917,60.2979,112.6525,247.5211,0,U,63214,999,6946,.5770032E-3,.19112E-3,0
TEVEL2-6,2025-052F,2026-06-13T15:04:30.095904,15.34288818,.00046292,97.3920,60.9479,111.5332,248.6404,0,U,63215,999,6956,.56161918E-3,.18594E-3,0
TEVEL2-1,2025-052H,2026-06-13T11:02:40.892064,15.33751772,.0004567,97.3891,60.4086,121.0574,239.1118,0,U,63217,999,6952,.54827383E-3,.17842E-3,0
TEVEL2-3,2025-052J,2026-06-13T15:36:59.603904,15.33815100,.00045754,97.3895,60.6205,120.5094,239.6601,0,U,63218,999,6955,.57334629E-3,.18701E-3,0
TEVEL2-2,2025-052K,2026-06-13T11:03:09.780768,15.33760135,.00046041,97.3887,60.4116,121.2587,238.9108,0,U,63219,999,6952,.55831458E-3,.18176E-3,0
TEVEL2-9,2025-052AD,2026-06-13T10:23:44.022624,15.31790900,.00074855,97.3953,59.7669,141.0831,219.0950,0,U,63237,999,6945,.52236692E-3,.15986E-3,0
TEVEL2-7,2025-052AE,2026-06-13T05:05:15.633600,15.31491052,.0007517,97.3956,59.4641,142.1332,218.0439,0,U,63238,999,6941,.53402E-3,.16192E-3,0
TEVEL2-8,2025-052AF,2026-06-12T16:44:22.677216,15.31459087,.00075315,97.3955,58.9279,144.4315,215.7430,0,U,63239,999,6933,.58193638E-3,.17638E-3,0
INNOSAT 16 (RS92S7),2025-155C,2026-06-13T14:11:02.110560,15.25421769,.00101223,97.4557,131.7302,187.9538,172.1541,0,U,64878,999,8012,.24965965E-3,.6244E-4,0
GEOSCAN 6 (RS92S6),2025-155D,2026-06-13T14:02:03.813504,15.30089307,.00078911,97.4548,133.1228,174.1368,185.9966,0,U,64879,999,8021,.35568138E-3,.10293E-3,0
GEOSCAN 1 (RS92S1),2025-155E,2026-06-13T14:07:35.904000,15.30680000,.00078254,97.4545,133.2713,173.8231,186.3108,0,U,64880,999,8022,.38869678E-3,.11465E-3,0
239ALFEROV (RS61S),2025-155F,2026-06-13T15:05:15.443808,15.32850855,.00075462,97.4545,133.8611,170.3265,189.8123,0,U,64881,999,8026,.42263771E-3,.1335E-3,0
GEOSCAN 2 (RS92S2),2025-155Q,2026-06-13T13:59:25.253088,15.30950893,.0007673,97.4544,133.4167,160.3946,199.7591,0,U,64890,999,8023,.37923135E-3,.11278E-3,0
GEOSCAN 5 (RS92S5),2025-155R,2026-06-13T14:50:30.921216,15.33169139,.00062453,97.4538,133.9869,173.6915,186.4407,0,U,64891,999,8027,.4402508E-3,.14047E-3,0
GEOSCAN 4 (RS92S4),2025-155S,2026-06-13T14:28:15.929760,15.33321349,.00063017,97.4541,134.0187,173.8445,186.2876,0,U,64892,999,8027,.46335717E-3,.14861E-3,0
